[{"OBJECT_NAME":"QIANFAN-59","OBJECT_ID":"2025-016E","EPOCH":"2026-03-09T22:05:06.195840","MEAN_MOTION":13.51007395,"ECCENTRICITY":0.00164146,"INCLINATION":88.9686,"RA_OF_ASC_NODE":94.0802,"ARG_OF_PERICENTER":95.2663,"MEAN_ANOMALY":265.0362,"EPHEMERIS_TYPE":0,"CLASSIFICATION_TYPE":"U","NORAD_CAT_ID":62789,"ELEMENT_SET_NO":999,"REV_AT_EPOCH":5901,"BSTAR":5.6884419e-5,"MEAN_MOTION_DOT":4.9e-7,"MEAN_MOTION_DDOT":0},{"OBJECT_NAME":"THORAD AGENA D DEB","OBJECT_ID":"1970-025BL","EPOCH":"2026-03-09T22:36:02.967264","MEAN_MOTION":13.5121129,"ECCENTRICITY":0.00282545,"INCLINATION":99.5506,"RA_OF_ASC_NODE":217.5519,"ARG_OF_PERICENTER":173.5911,"MEAN_ANOMALY":301.7856,"EPHEMERIS_TYPE":0,"CLASSIFICATION_TYPE":"U","NORAD_CAT_ID":4687,"ELEMENT_SET_NO":999,"REV_AT_EPOCH":75087,"BSTAR":0.00039262208,"MEAN_MOTION_DOT":2.13e-6,"MEAN_MOTION_DDOT":0}]
